[{"OBJECT_NAME":"STARLINK-5641","OBJECT_ID":"2023-013AE","EPOCH":"2025-10-30T06:17:11.661792","MEAN_MOTION":15.02531267,"ECCENTRICITY":9.269e-5,"INCLINATION":43.0067,"RA_OF_ASC_NODE":288.6998,"ARG_OF_PERICENTER":260.5712,"MEAN_ANOMALY":99.5026,"EPHEMERIS_TYPE":0,"CLASSIFICATION_TYPE":"U","NORAD_CAT_ID":55359,"ELEMENT_SET_NO":999,"REV_AT_EPOCH":15209,"BSTAR":3.7394596e-5,"MEAN_MOTION_DOT":3.02e-6,"MEAN_MOTION_DDOT":0},{"OBJECT_NAME":"STARLINK-5664","OBJECT_ID":"2023-013AF","EPOCH":"2025-10-29T17:07:01.454592","MEAN_MOTION":15.02546091,"ECCENTRICITY":0.0001088,"INCLINATION":43.0033,"RA_OF_ASC_NODE":304.4515,"ARG_OF_PERICENTER":271.1627,"MEAN_ANOMALY":88.9091,"EPHEMERIS_TYPE":0,"CLASSIFICATION_TYPE":"U","NORAD_CAT_ID":55360,"ELEMENT_SET_NO":999,"REV_AT_EPOCH":15186,"BSTAR":0.00016330775,"MEAN_MOTION_DOT":2.004e-5,"MEAN_MOTION_DDOT":0},{"OBJECT_NAME":"STARLINK-5665","OBJECT_ID":"2023-013AG","EPOCH":"2025-10-30T04:57:49.257504","MEAN_MOTION":15.02537838,"ECCENTRICITY":0.00011681,"INCLINATION":43.0054,"RA_OF_ASC_NODE":276.1405,"ARG_OF_PERICENTER":264.7775,"MEAN_ANOMALY":95.2934,"EPHEMERIS_TYPE":0,"CLASSIFICATION_TYPE":"U","NORAD_CAT_ID":55361,"ELEMENT_SET_NO":999,"REV_AT_EPOCH":15223,"BSTAR":6.5149439e-5,"MEAN_MOTION_DOT":6.77e-6,"MEAN_MOTION_DDOT":0},{"OBJECT_NAME":"STARLINK-5574","OBJECT_ID":"2023-013AH","EPOCH":"2025-10-30T00:26:36.731616","MEAN_MOTION":15.02534949,"ECCENTRICITY":0.0001501,"INCLINATION":43.0039,"RA_OF_ASC_NODE":277.3019,"ARG_OF_PERICENTER":271.4203,"MEAN_ANOMALY":88.6467,"EPHEMERIS_TYPE":0,"CLASSIFICATION_TYPE":"U","NORAD_CAT_ID":55362,"ELEMENT_SET_NO":999,"REV_AT_EPOCH":15220,"BSTAR":9.3890393e-5,"MEAN_MOTION_DOT":1.065e-5,"MEAN_MOTION_DDOT":0},{"OBJECT_NAME":"STARLINK-5627","OBJECT_ID":"2023-013AK","EPOCH":"2025-10-29T23:51:04.722624","MEAN_MOTION":15.02538529,"ECCENTRICITY":0.00010456,"INCLINATION":43.0054,"RA_OF_ASC_NODE":290.1248,"ARG_OF_PERICENTER":266.6274,"MEAN_ANOMALY":93.4449,"EPHEMERIS_TYPE":0,"CLASSIFICATION_TYPE":"U","NORAD_CAT_ID":55364,"ELEMENT_SET_NO":999,"REV_AT_EPOCH":15205,"BSTAR":4.4291011e-5,"MEAN_MOTION_DOT":3.95e-6,"MEAN_MOTION_DDOT":0},{"OBJECT_NAME":"STARLINK-5639","OBJECT_ID":"2023-013AL","EPOCH":"2025-10-30T06:50:23.273376","MEAN_MOTION":15.025279,"ECCENTRICITY":0.00015291,"INCLINATION":43.0063,"RA_OF_ASC_NODE":301.8643,"ARG_OF_PERICENTER":276.9455,"MEAN_ANOMALY":83.1213,"EPHEMERIS_TYPE":0,"CLASSIFICATION_TYPE":"U","NORAD_CAT_ID":55365,"ELEMENT_SET_NO":999,"REV_AT_EPOCH":15194,"BSTAR":4.5906547e-5,"MEAN_MOTION_DOT":4.16e-6,"MEAN_MOTION_DDOT":0},{"OBJECT_NAME":"STARLINK-5654","OBJECT_ID":"2023-013AM","EPOCH":"2025-10-30T00:31:25.571136","MEAN_MOTION":15.02529435,"ECCENTRICITY":6.967e-5,"INCLINATION":43.0091,"RA_OF_ASC_NODE":277.3274,"ARG_OF_PERICENTER":263.8714,"MEAN_ANOMALY":96.2049,"EPHEMERIS_TYPE":0,"CLASSIFICATION_TYPE":"U","NORAD_CAT_ID":55366,"ELEMENT_SET_NO":999,"REV_AT_EPOCH":15220,"BSTAR":-7.4734452e-5,"MEAN_MOTION_DOT":-1.213e-5,"MEAN_MOTION_DDOT":0},{"OBJECT_NAME":"STARLINK-5635","OBJECT_ID":"2023-013AN","EPOCH":"2025-10-29T15:21:01.212768","MEAN_MOTION":15.02536797,"ECCENTRICITY":0.00011702,"INCLINATION":43.0071,"RA_OF_ASC_NODE":279.6146,"ARG_OF_PERICENTER":266.1927,"MEAN_ANOMALY":93.8782,"EPHEMERIS_TYPE":0,"CLASSIFICATION_TYPE":"U","NORAD_CAT_ID":55367,"ELEMENT_SET_NO":999,"REV_AT_EPOCH":15214,"BSTAR":-0.00011312018,"MEAN_MOTION_DOT":-1.731e-5,"MEAN_MOTION_DDOT":0},{"OBJECT_NAME":"STARLINK-5625","OBJECT_ID":"2023-013AP","EPOCH":"2025-10-30T04:59:24.967104","MEAN_MOTION":15.02534179,"ECCENTRICITY":0.00012668,"INCLINATION":43.004,"RA_OF_ASC_NODE":276.147,"ARG_OF_PERICENTER":272.6959,"MEAN_ANOMALY":87.3738,"EPHEMERIS_TYPE":0,"CLASSIFICATION_TYPE":"U","NORAD_CAT_ID":55368,"ELEMENT_SET_NO":999,"REV_AT_EPOCH":15223,"BSTAR":4.8903676e-5,"MEAN_MOTION_DOT":4.57e-6,"MEAN_MOTION_DDOT":0},{"OBJECT_NAME":"STARLINK-5644","OBJECT_ID":"2023-013AQ","EPOCH":"2025-10-30T06:48:47.219040","MEAN_MOTION":15.02536232,"ECCENTRICITY":3.884e-5,"INCLINATION":43.0027,"RA_OF_ASC_NODE":301.8537,"ARG_OF_PERICENTER":186.2871,"MEAN_ANOMALY":173.7966,"EPHEMERIS_TYPE":0,"CLASSIFICATION_TYPE":"U","NORAD_CAT_ID":55369,"ELEMENT_SET_NO":999,"REV_AT_EPOCH":15194,"BSTAR":-2.559742e-6,"MEAN_MOTION_DOT":-2.38e-6,"MEAN_MOTION_DDOT":0},{"OBJECT_NAME":"STARLINK-5027","OBJECT_ID":"2023-013AR","EPOCH":"2025-10-30T06:55:10.730496","MEAN_MOTION":15.02534697,"ECCENTRICITY":9.412e-5,"INCLINATION":43.0057,"RA_OF_ASC_NODE":301.8913,"ARG_OF_PERICENTER":264.8587,"MEAN_ANOMALY":95.2148,"EPHEMERIS_TYPE":0,"CLASSIFICATION_TYPE":"U","NORAD_CAT_ID":55370,"ELEMENT_SET_NO":999,"REV_AT_EPOCH":15194,"BSTAR":3.704505e-5,"MEAN_MOTION_DOT":2.97e-6,"MEAN_MOTION_DDOT":0},{"OBJECT_NAME":"STARLINK-5590","OBJECT_ID":"2023-013AS","EPOCH":"2025-10-30T06:34:23.967264","MEAN_MOTION":15.02536833,"ECCENTRICITY":0.00010635,"INCLINATION":43.003,"RA_OF_ASC_NODE":301.7726,"ARG_OF_PERICENTER":261.5694,"MEAN_ANOMALY":98.5027,"EPHEMERIS_TYPE":0,"CLASSIFICATION_TYPE":"U","NORAD_CAT_ID":55371,"ELEMENT_SET_NO":999,"REV_AT_EPOCH":15286,"BSTAR":3.2216661e-5,"MEAN_MOTION_DOT":2.32e-6,"MEAN_MOTION_DDOT":0},{"OBJECT_NAME":"STARLINK-5568","OBJECT_ID":"2023-013AT","EPOCH":"2025-10-30T06:43:59.718720","MEAN_MOTION":15.0253379,"ECCENTRICITY":0.00028717,"INCLINATION":43.0103,"RA_OF_ASC_NODE":301.8312,"ARG_OF_PERICENTER":276.6661,"MEAN_ANOMALY":83.3855,"EPHEMERIS_TYPE":0,"CLASSIFICATION_TYPE":"U","NORAD_CAT_ID":55372,"ELEMENT_SET_NO":999,"REV_AT_EPOCH":15194,"BSTAR":2.718405e-6,"MEAN_MOTION_DOT":-1.67e-6,"MEAN_MOTION_DDOT":0},{"OBJECT_NAME":"STARLINK-5581","OBJECT_ID":"2023-013AU","EPOCH":"2025-10-30T00:51:26.546688","MEAN_MOTION":15.02541791,"ECCENTRICITY":0.00010547,"INCLINATION":43.005,"RA_OF_ASC_NODE":303.4264,"ARG_OF_PERICENTER":266.8776,"MEAN_ANOMALY":93.1945,"EPHEMERIS_TYPE":0,"CLASSIFICATION_TYPE":"U","NORAD_CAT_ID":55373,"ELEMENT_SET_NO":999,"REV_AT_EPOCH":15190,"BSTAR":6.7933854e-5,"MEAN_MOTION_DOT":7.14e-6,"MEAN_MOTION_DDOT":0},{"OBJECT_NAME":"STARLINK-5578","OBJECT_ID":"2023-013AV","EPOCH":"2025-10-30T00:16:17.218560","MEAN_MOTION":15.02535039,"ECCENTRICITY":0.0002232,"INCLINATION":43.013,"RA_OF_ASC_NODE":303.2568,"ARG_OF_PERICENTER":290.1455,"MEAN_ANOMALY":69.9148,"EPHEMERIS_TYPE":0,"CLASSIFICATION_TYPE":"U","NORAD_CAT_ID":55374,"ELEMENT_SET_NO":999,"REV_AT_EPOCH":15190,"BSTAR":9.50942e-6,"MEAN_MOTION_DOT":-7.6e-7,"MEAN_MOTION_DDOT":0},{"OBJECT_NAME":"STARLINK-5588","OBJECT_ID":"2023-013AW","EPOCH":"2025-10-30T06:24:51.135264","MEAN_MOTION":15.02497813,"ECCENTRICITY":9.022e-5,"INCLINATION":43.006,"RA_OF_ASC_NODE":301.7311,"ARG_OF_PERICENTER":244.4385,"MEAN_ANOMALY":115.6364,"EPHEMERIS_TYPE":0,"CLASSIFICATION_TYPE":"U","NORAD_CAT_ID":55375,"ELEMENT_SET_NO":999,"REV_AT_EPOCH":15194,"BSTAR":-3.7666243e-5,"MEAN_MOTION_DOT":-7.12e-6,"MEAN_MOTION_DDOT":0},{"OBJECT_NAME":"STARLINK-5586","OBJECT_ID":"2023-013AX","EPOCH":"2025-10-30T05:47:20.836032","MEAN_MOTION":15.02539829,"ECCENTRICITY":0.00010029,"INCLINATION":43.0024,"RA_OF_ASC_NODE":276.3857,"ARG_OF_PERICENTER":260.0443,"MEAN_ANOMALY":100.0286,"EPHEMERIS_TYPE":0,"CLASSIFICATION_TYPE":"U","NORAD_CAT_ID":55376,"ELEMENT_SET_NO":999,"REV_AT_EPOCH":15223,"BSTAR":4.3243882e-5,"MEAN_MOTION_DOT":3.81e-6,"MEAN_MOTION_DDOT":0},{"OBJECT_NAME":"STARLINK-5567","OBJECT_ID":"2023-013AY","EPOCH":"2025-10-29T23:42:43.106688","MEAN_MOTION":15.0253391,"ECCENTRICITY":0.00013446,"INCLINATION":43.0047,"RA_OF_ASC_NODE":303.0741,"ARG_OF_PERICENTER":258.6001,"MEAN_ANOMALY":101.469,"EPHEMERIS_TYPE":0,"CLASSIFICATION_TYPE":"U","NORAD_CAT_ID":55377,"ELEMENT_SET_NO":999,"REV_AT_EPOCH":15190,"BSTAR":4.8035828e-5,"MEAN_MOTION_DOT":4.45e-6,"MEAN_MOTION_DDOT":0},{"OBJECT_NAME":"STARLINK-5572","OBJECT_ID":"2023-013AZ","EPOCH":"2025-10-30T06:29:36.358944","MEAN_MOTION":15.02533812,"ECCENTRICITY":0.00011638,"INCLINATION":43.0055,"RA_OF_ASC_NODE":301.7545,"ARG_OF_PERICENTER":263.4814,"MEAN_ANOMALY":96.5896,"EPHEMERIS_TYPE":0,"CLASSIFICATION_TYPE":"U","NORAD_CAT_ID":55378,"ELEMENT_SET_NO":999,"REV_AT_EPOCH":15194,"BSTAR":6.109226e-6,"MEAN_MOTION_DOT":-1.21e-6,"MEAN_MOTION_DDOT":0},{"OBJECT_NAME":"STARLINK-5569","OBJECT_ID":"2023-013BA","EPOCH":"2025-10-29T17:29:23.539488","MEAN_MOTION":15.02527491,"ECCENTRICITY":0.00013946,"INCLINATION":43.0049,"RA_OF_ASC_NODE":304.5688,"ARG_OF_PERICENTER":259.7991,"MEAN_ANOMALY":100.2694,"EPHEMERIS_TYPE":0,"CLASSIFICATION_TYPE":"U","NORAD_CAT_ID":55379,"ELEMENT_SET_NO":999,"REV_AT_EPOCH":15186,"BSTAR":0.00015545146,"MEAN_MOTION_DOT":1.896e-5,"MEAN_MOTION_DDOT":0},{"OBJECT_NAME":"STARLINK-5571","OBJECT_ID":"2023-013BB","EPOCH":"2025-10-30T04:54:37.595520","MEAN_MOTION":15.02533068,"ECCENTRICITY":0.00017259,"INCLINATION":43.0087,"RA_OF_ASC_NODE":276.1242,"ARG_OF_PERICENTER":277.3811,"MEAN_ANOMALY":82.6836,"EPHEMERIS_TYPE":0,"CLASSIFICATION_TYPE":"U","NORAD_CAT_ID":55380,"ELEMENT_SET_NO":999,"REV_AT_EPOCH":15223,"BSTAR":-4.5981499e-5,"MEAN_MOTION_DOT":-8.25e-6,"MEAN_MOTION_DDOT":0},{"OBJECT_NAME":"STARLINK-5575","OBJECT_ID":"2023-013BC","EPOCH":"2025-10-29T23:47:31.117632","MEAN_MOTION":15.02530045,"ECCENTRICITY":0.00011974,"INCLINATION":43.0055,"RA_OF_ASC_NODE":303.0958,"ARG_OF_PERICENTER":267.7681,"MEAN_ANOMALY":92.3025,"EPHEMERIS_TYPE":0,"CLASSIFICATION_TYPE":"U","NORAD_CAT_ID":55381,"ELEMENT_SET_NO":999,"REV_AT_EPOCH":15190,"BSTAR":7.9285022e-5,"MEAN_MOTION_DOT":8.67e-6,"MEAN_MOTION_DDOT":0},{"OBJECT_NAME":"STARLINK-5576","OBJECT_ID":"2023-013BD","EPOCH":"2025-10-30T06:20:01.089600","MEAN_MOTION":15.02538923,"ECCENTRICITY":0.00016947,"INCLINATION":43.0099,"RA_OF_ASC_NODE":301.7051,"ARG_OF_PERICENTER":262.4301,"MEAN_ANOMALY":97.6349,"EPHEMERIS_TYPE":0,"CLASSIFICATION_TYPE":"U","NORAD_CAT_ID":55382,"ELEMENT_SET_NO":999,"REV_AT_EPOCH":15194,"BSTAR":1.3123986e-5,"MEAN_MOTION_DOT":-2.7e-7,"MEAN_MOTION_DDOT":0}]
